{"type":"FeatureCollection","name":"admin","crs":{"type":"name","properties":{"name":"urn:ogc:def:crs:OGC:1.3:CRS84"}},"features":[{"type":"Feature","properties":{"name":"Trudering"},"geometry":{"type":"Polygon","coordinates":[[[11.64369,48.09354],[11.72291,48.09354],[11.72291,48.15918],[11.64369,48.15918],[11.64369,48.09354]]]}},{"type":"Feature","properties":{"name":"Thalkirchen"},"geometry":{"type":"Polygon","coordinates":[[[11.471,48.06162],[11.55513,48.06162],[11.55513,48.10676],[11.471,48.10676],[11.471,48.06162]]]}},{"type":"Feature","properties":{"name":"Sendling"},"geometry":{"type":"Polygon","coordinates":[[[11.50153,48.099],[11.53782,48.099],[11.53782,48.13645],[11.50153,48.13645],[11.50153,48.099]]]}},{"type":"Feature","properties":{"name":"Hadern"},"geometry":{"type":"Polygon","coordinates":[[[11.46297,48.09539],[11.50269,48.09539],[11.50269,48.13084],[11.46297,48.13084],[11.46297,48.09539]]]}},{"type":"Feature","properties":{"name":"Pasing"},"geometry":{"type":"Polygon","coordinates":[[[11.43293,48.12823],[11.492,48.12823],[11.492,48.17657],[11.43293,48.17657],[11.43293,48.12823]]]}},{"type":"Feature","properties":{"name":"Aubing"},"geometry":{"type":"Polygon","coordinates":[[[11.36078,48.12517],[11.45356,48.12517],[11.45356,48.20519],[11.36078,48.20519],[11.36078,48.12517]]]}},{"type":"Feature","properties":{"name":"Allach"},"geometry":{"type":"Polygon","coordinates":[[[11.43039,48.17085],[11.49055,48.17085],[11.49055,48.21955],[11.43039,48.21955],[11.43039,48.17085]]]}},{"type":"Feature","properties":{"name":"Feldmoching"},"geometry":{"type":"Polygon","coordinates":[[[11.47706,48.18849],[11.56561,48.18849],[11.56561,48.24812],[11.47706,48.24812],[11.47706,48.18849]]]}},{"type":"Feature","properties":{"name":"Moosach"},"geometry":{"type":"Polygon","coordinates":[[[11.46568,48.16539],[11.54154,48.16539],[11.54154,48.20521],[11.46568,48.20521],[11.46568,48.16539]]]}},{"type":"Feature","properties":{"name":"Neuhausen"},"geometry":{"type":"Polygon","coordinates":[[[11.4813,48.14254],[11.55599,48.14254],[11.55599,48.1706],[11.4813,48.1706],[11.4813,48.14254]]]}},{"type":"Feature","properties":{"name":"Laim"},"geometry":{"type":"Polygon","coordinates":[[[11.48277,48.12522],[11.53439,48.12522],[11.53439,48.14738],[11.48277,48.14738],[11.48277,48.12522]]]}},{"type":"Feature","properties":{"name":"Munchen"},"geometry":{"type":"Polygon","coordinates":[[[11.5261,48.12637],[11.54979,48.12637],[11.54979,48.14284],[11.5261,48.14284],[11.5261,48.12637]]]}},{"type":"Feature","properties":{"name":"Ludwigsvorstadt"},"geometry":{"type":"Polygon","coordinates":[[[11.5442,48.11786],[11.58742,48.11786],[11.58742,48.14363],[11.5442,48.14363],[11.5442,48.11786]]]}},{"type":"Feature","properties":{"name":"Sendling"},"geometry":{"type":"Polygon","coordinates":[[[11.53542,48.10188],[11.56251,48.10188],[11.56251,48.12986],[11.53542,48.12986],[11.53542,48.10188]]]}},{"type":"Feature","properties":{"name":"Milbertshofen"},"geometry":{"type":"Polygon","coordinates":[[[11.53808,48.16774],[11.59061,48.16774],[11.59061,48.22856],[11.53808,48.22856],[11.53808,48.16774]]]}},{"type":"Feature","properties":{"name":"Maxvorstadt"},"geometry":{"type":"Polygon","coordinates":[[[11.53892,48.1396],[11.58819,48.1396],[11.58819,48.15763],[11.53892,48.15763],[11.53892,48.1396]]]}},{"type":"Feature","properties":{"name":"Schwabing"},"geometry":{"type":"Polygon","coordinates":[[[11.54964,48.15468],[11.58536,48.15468],[11.58536,48.17803],[11.54964,48.17803],[11.54964,48.15468]]]}},{"type":"Feature","properties":{"name":"Schwabing"},"geometry":{"type":"Polygon","coordinates":[[[11.57907,48.14935],[11.65073,48.14935],[11.65073,48.22924],[11.57907,48.22924],[11.57907,48.14935]]]}},{"type":"Feature","properties":{"name":"Altstadt"},"geometry":{"type":"Polygon","coordinates":[[[11.56484,48.1309],[11.59817,48.1309],[11.59817,48.15657],[11.56484,48.15657],[11.56484,48.1309]]]}},{"type":"Feature","properties":{"name":"Bogenhausen"},"geometry":{"type":"Polygon","coordinates":[[[11.59479,48.13413],[11.6961,48.13413],[11.6961,48.18289],[11.59479,48.18289],[11.59479,48.13413]]]}},{"type":"Feature","properties":{"name":"Au-Haidhausen"},"geometry":{"type":"Polygon","coordinates":[[[11.56932,48.11858],[11.61985,48.11858],[11.61985,48.14171],[11.56932,48.14171],[11.56932,48.11858]]]}},{"type":"Feature","properties":{"name":"Berg am Laim"},"geometry":{"type":"Polygon","coordinates":[[[11.60108,48.11446],[11.65653,48.11446],[11.65653,48.13651],[11.60108,48.13651],[11.60108,48.11446]]]}},{"type":"Feature","properties":{"name":"Untergiesing"},"geometry":{"type":"Polygon","coordinates":[[[11.54136,48.06813],[11.5883,48.06813],[11.5883,48.12221],[11.54136,48.12221],[11.54136,48.06813]]]}},{"type":"Feature","properties":{"name":"Ramersdorf"},"geometry":{"type":"Polygon","coordinates":[[[11.59525,48.07749],[11.68873,48.07749],[11.68873,48.12437],[11.59525,48.12437],[11.59525,48.07749]]]}},{"type":"Feature","properties":{"name":"Obergiesing"},"geometry":{"type":"Polygon","coordinates":[[[11.57374,48.08506],[11.61631,48.08506],[11.61631,48.12281],[11.57374,48.12281],[11.57374,48.08506]]]}}]}